[
    {
        "Altitude(m)": 702934.771376362,
        "Argument of Periapsis(deg)": 0.009112096949301655,
        "Eccentricity": 0.0,
        "Inclination(deg)": 45.0,
        "Latitude(deg)": 5.002671550664159,
        "Longitude(deg)": -95.60783918163844,
        "Mean Anomaly(deg)": -187.13702668201532,
        "RAAN(deg)": 189.99139844683344,
        "Satellite Name": "Constellation 1 846",
        "Satellite Number": 846,
        "Semi-Major Axis(m)": 7083131.272910544,
        "Time(s)": 152
    },
    {
        "Altitude(m)": 702937.9770339692,
        "Argument of Periapsis(deg)": 0.009172044955547059,
        "Eccentricity": 0.0,
        "Inclination(deg)": 45.0,
        "Latitude(deg)": 4.959614739067287,
        "Longitude(deg)": -95.56876009432347,
        "Mean Anomaly(deg)": -187.07632554176547,
        "RAAN(deg)": 189.9913418576679,
        "Satellite Name": "Constellation 1 846",
        "Satellite Number": 846,
        "Semi-Major Axis(m)": 7083131.272910544,
        "Time(s)": 153
    },
    {
        "Altitude(m)": 702941.2034500075,
        "Argument of Periapsis(deg)": 0.009231992961792466,
        "Eccentricity": 0.0,
        "Inclination(deg)": 45.0,
        "Latitude(deg)": 4.916555106060235,
        "Longitude(deg)": -95.52968665426796,
        "Mean Anomaly(deg)": -187.01562440151554,
        "RAAN(deg)": 189.99128526850234,
        "Satellite Name": "Constellation 1 846",
        "Satellite Number": 846,
        "Semi-Major Axis(m)": 7083131.272910544,
        "Time(s)": 154
    },
    {
        "Altitude(m)": 702944.4506287355,
        "Argument of Periapsis(deg)": 0.009291940968037872,
        "Eccentricity": 0.0,
        "Inclination(deg)": 45.0,
        "Latitude(deg)": 4.873492677212113,
        "Longitude(deg)": -95.49061881242754,
        "Mean Anomaly(deg)": -186.95492326126563,
        "RAAN(deg)": 189.99122867933673,
        "Satellite Name": "Constellation 1 846",
        "Satellite Number": 846,
        "Semi-Major Axis(m)": 7083131.272910544,
        "Time(s)": 155
    },
    {
        "Altitude(m)": 702947.7185743143,
        "Argument of Periapsis(deg)": 0.009351888974283276,
        "Eccentricity": 0.0,
        "Inclination(deg)": 45.0,
        "Latitude(deg)": 4.830427478081177,
        "Longitude(deg)": -95.45155668786715,
        "Mean Anomaly(deg)": -186.89422212101573,
        "RAAN(deg)": 189.99117209017118,
        "Satellite Name": "Constellation 1 846",
        "Satellite Number": 846,
        "Semi-Major Axis(m)": 7083131.272910544,
        "Time(s)": 156
    },
    {
        "Altitude(m)": 702951.0072908186,
        "Argument of Periapsis(deg)": 0.00941183698052868,
        "Eccentricity": 0.0,
        "Inclination(deg)": 45.0,
        "Latitude(deg)": 4.787359534214903,
        "Longitude(deg)": -95.41249989537326,
        "Mean Anomaly(deg)": -186.8335209807658,
        "RAAN(deg)": 189.9911155010056,
        "Satellite Name": "Constellation 1 846",
        "Satellite Number": 846,
        "Semi-Major Axis(m)": 7083131.272910544,
        "Time(s)": 157
    },
    {
        "Altitude(m)": 702954.3167822325,
        "Argument of Periapsis(deg)": 0.009471784986774088,
        "Eccentricity": 0.0,
        "Inclination(deg)": 45.0,
        "Latitude(deg)": 4.744288871150429,
        "Longitude(deg)": -95.37344855403563,
        "Mean Anomaly(deg)": -186.77281984051595,
        "RAAN(deg)": 189.99105891184004,
        "Satellite Name": "Constellation 1 846",
        "Satellite Number": 846,
        "Semi-Major Axis(m)": 7083131.272910544,
        "Time(s)": 158
    },
    {
        "Altitude(m)": 702957.6470524457,
        "Argument of Periapsis(deg)": 0.009531732993019492,
        "Eccentricity": 0.0,
        "Inclination(deg)": 45.0,
        "Latitude(deg)": 4.701215514414239,
        "Longitude(deg)": -95.33440261485916,
        "Mean Anomaly(deg)": -186.71211870026602,
        "RAAN(deg)": 189.99100232267443,
        "Satellite Name": "Constellation 1 846",
        "Satellite Number": 846,
        "Semi-Major Axis(m)": 7083131.272910544,
        "Time(s)": 159
    },
    {
        "Altitude(m)": 702960.9981052498,
        "Argument of Periapsis(deg)": 0.009591680999264898,
        "Eccentricity": 0.0,
        "Inclination(deg)": 45.0,
        "Latitude(deg)": 4.658139489522526,
        "Longitude(deg)": -95.2953620288609,
        "Mean Anomaly(deg)": -186.65141756001614,
        "RAAN(deg)": 189.99094573350888,
        "Satellite Name": "Constellation 1 846",
        "Satellite Number": 846,
        "Semi-Major Axis(m)": 7083131.272910544,
        "Time(s)": 160
    },
    {
        "Altitude(m)": 702964.3699443607,
        "Argument of Periapsis(deg)": 0.009651629005510304,
        "Eccentricity": 0.0,
        "Inclination(deg)": 45.0,
        "Latitude(deg)": 4.615060821981191,
        "Longitude(deg)": -95.25632674706988,
        "Mean Anomaly(deg)": -186.59071641976624,
        "RAAN(deg)": 189.99088914434333,
        "Satellite Name": "Constellation 1 846",
        "Satellite Number": 846,
        "Semi-Major Axis(m)": 7083131.272910544,
        "Time(s)": 161
    },
    {
        "Altitude(m)": 702967.7625733784,
        "Argument of Periapsis(deg)": 0.00971157701175571,
        "Eccentricity": 0.0,
        "Inclination(deg)": 45.0,
        "Latitude(deg)": 4.571979537285891,
        "Longitude(deg)": -95.2172967205271,
        "Mean Anomaly(deg)": -186.53001527951633,
        "RAAN(deg)": 189.99083255517775,
        "Satellite Name": "Constellation 1 846",
        "Satellite Number": 846,
        "Semi-Major Axis(m)": 7083131.272910544,
        "Time(s)": 162
    },
    {
        "Altitude(m)": 702971.1759958352,
        "Argument of Periapsis(deg)": 0.009771525018001118,
        "Eccentricity": 0.0,
        "Inclination(deg)": 45.0,
        "Latitude(deg)": 4.528895660922333,
        "Longitude(deg)": -95.17827206838234,
        "Mean Anomaly(deg)": -186.46931413926646,
        "RAAN(deg)": 189.9907759660122,
        "Satellite Name": "Constellation 1 846",
        "Satellite Number": 846,
        "Semi-Major Axis(m)": 7083131.272910544,
        "Time(s)": 163
    },
    {
        "Altitude(m)": 702974.6102151574,
        "Argument of Periapsis(deg)": 0.00983147302424652,
        "Eccentricity": 0.0,
        "Inclination(deg)": 45.0,
        "Latitude(deg)": 4.4858092183659,
        "Longitude(deg)": -95.13925240550596,
        "Mean Anomaly(deg)": -186.40861299901655,
        "RAAN(deg)": 189.99071937684658,
        "Satellite Name": "Constellation 1 846",
        "Satellite Number": 846,
        "Semi-Major Axis(m)": 7083131.272910544,
        "Time(s)": 164
    },
    {
        "Altitude(m)": 702978.0652346817,
        "Argument of Periapsis(deg)": 0.009891421030491928,
        "Eccentricity": 0.0,
        "Inclination(deg)": 45.0,
        "Latitude(deg)": 4.442720235082274,
        "Longitude(deg)": -95.10023785107087,
        "Mean Anomaly(deg)": -186.3479118587666,
        "RAAN(deg)": 189.99066278768103,
        "Satellite Name": "Constellation 1 846",
        "Satellite Number": 846,
        "Semi-Major Axis(m)": 7083131.272910544,
        "Time(s)": 165
    },
    {
        "Altitude(m)": 702981.5410576503,
        "Argument of Periapsis(deg)": 0.009951369036737332,
        "Eccentricity": 0.0,
        "Inclination(deg)": 45.0,
        "Latitude(deg)": 4.399628736527429,
        "Longitude(deg)": -95.06122835616479,
        "Mean Anomaly(deg)": -186.28721071851677,
        "RAAN(deg)": 189.99060619851548,
        "Satellite Name": "Constellation 1 846",
        "Satellite Number": 846,
        "Semi-Major Axis(m)": 7083131.272910544,
        "Time(s)": 166
    },
    {
        "Altitude(m)": 702985.0376872189,
        "Argument of Periapsis(deg)": 0.010011317042982738,
        "Eccentricity": 0.0,
        "Inclination(deg)": 45.0,
        "Latitude(deg)": 4.356534748147317,
        "Longitude(deg)": -95.02222387188644,
        "Mean Anomaly(deg)": -186.22650957826684,
        "RAAN(deg)": 189.9905496093499,
        "Satellite Name": "Constellation 1 846",
        "Satellite Number": 846,
        "Semi-Major Axis(m)": 7083131.272910544,
        "Time(s)": 167
    },
    {
        "Altitude(m)": 702988.5551264492,
        "Argument of Periapsis(deg)": 0.010071265049228144,
        "Eccentricity": 0.0,
        "Inclination(deg)": 45.0,
        "Latitude(deg)": 4.313438295378492,
        "Longitude(deg)": -94.983224349346,
        "Mean Anomaly(deg)": -186.16580843801694,
        "RAAN(deg)": 189.99049302018435,
        "Satellite Name": "Constellation 1 846",
        "Satellite Number": 846,
        "Semi-Major Axis(m)": 7083131.272910544,
        "Time(s)": 168
    },
    {
        "Altitude(m)": 702992.0933783081,
        "Argument of Periapsis(deg)": 0.01013121305547355,
        "Eccentricity": 0.0,
        "Inclination(deg)": 45.0,
        "Latitude(deg)": 4.27033940364783,
        "Longitude(deg)": -94.94422973966482,
        "Mean Anomaly(deg)": -186.105107297767,
        "RAAN(deg)": 189.9904364310188,
        "Satellite Name": "Constellation 1 846",
        "Satellite Number": 846,
        "Semi-Major Axis(m)": 7083131.272910544,
        "Time(s)": 169
    },
    {
        "Altitude(m)": 702995.6524456661,
        "Argument of Periapsis(deg)": 0.010191161061718957,
        "Eccentricity": 0.0,
        "Inclination(deg)": 45.0,
        "Latitude(deg)": 4.227238098372791,
        "Longitude(deg)": -94.90523999397524,
        "Mean Anomaly(deg)": -186.04440615751713,
        "RAAN(deg)": 189.99037984185318,
        "Satellite Name": "Constellation 1 846",
        "Satellite Number": 846,
        "Semi-Major Axis(m)": 7083131.272910544,
        "Time(s)": 170
    }
]